NORAD_CAT_ID,OBJECT_NAME,OBJECT_TYPE,EPOCH,MEAN_MOTION,ECCENTRICITY,INCLINATION,RA_OF_ASC_NODE,ARG_OF_PERICENTER,MEAN_ANOMALY,BSTAR,MEAN_MOTION_DOT,MEAN_MOTION_DDOT,TLE_LINE0,TLE_LINE1,TLE_LINE2,SEMIMAJOR_AXIS,PERIOD,APOGEE,PERIGEE,DECAYED
53799.0,STARLINK-4710,PAYLOAD,2023-01-15 09:32:19,15.08825667,0.0002336999999999,53.2184,23.4013,83.4957,276.6301,-0.00030014,-5.06e-05,0.0,0 STARLINK-4710,1 53799U 22111AC  23015.39745212 -.00005060  00000-0 -30014-3 0  9998,2 53799  53.2184  23.4013 0002337  83.4957 276.6301 15.08825667 19500,6917.924,95.438,541.406,538.172,0.0
53799.0,STARLINK-4710,PAYLOAD,2023-01-15 17:29:14,15.08837175,0.0001684,53.2185,21.9136,90.3561,269.7624,-0.00012755,-2.317e-05,0.0,0 STARLINK-4710,1 53799U 22111AC  23015.72864510 -.00002317  00000-0 -12755-3 0  9992,2 53799  53.2185  21.9136 0001684  90.3561 269.7624 15.08837175 19555,6917.889,95.438,540.919,538.589,0.0
53799.0,STARLINK-4710,PAYLOAD,2023-01-16 06:12:19,15.08861384,0.0001588999999999,53.2181,19.5344,96.0373,264.08,0.00062067,9.609e-05,0.0,0 STARLINK-4710,1 53799U 22111AC  23016.25855802  .00009609  00000-0  62067-3 0  9995,2 53799  53.2181  19.5344 0001589  96.0373 264.0800 15.08861384 19635,6917.815,95.436,540.779,538.581,0.0
53799.0,STARLINK-4710,PAYLOAD,2023-01-16 09:23:06,15.08879743,0.0001615,53.2177,18.9396,101.3315,258.7859,0.0020576,0.00032647,0.0,0 STARLINK-4710,1 53799U 22111AC  23016.39104167  .00032647  00000-0  20576-2 0  9997,2 53799  53.2177  18.9396 0001615 101.3315 258.7859 15.08879743 20461,6917.759,95.435,540.741,538.507,0.0
53799.0,STARLINK-4710,PAYLOAD,2023-01-17 06:03:08,15.08814393,0.000172,53.2176,15.0742,69.1523,290.9653,0.00093804,0.00014662,0.0,0 STARLINK-4710,1 53799U 22111AC  23017.25218454  .00014662  00000-0  93804-3 0  9990,2 53799  53.2176  15.0742 0001720  69.1523 290.9653 15.08814393 19785,6917.959,95.439,541.014,538.634,0.0
53799.0,STARLINK-4710,PAYLOAD,2023-01-17 14:00:04,15.08829169,0.0001629,53.2179,13.5868,80.6793,279.4384,0.0018704999999999,0.00029598,0.0,0 STARLINK-4710,1 53799U 22111AC  23017.58338875  .00029598  00000-0  18705-2 0  9996,2 53799  53.2179  13.5868 0001629  80.6793 279.4384 15.08829169 20642,6917.9130000000005,95.438,540.905,538.6519999999999,0.0
53799.0,STARLINK-4710,PAYLOAD,2023-01-17 17:10:51,15.08833081,0.0001657,53.218,12.9922,80.3312,279.7867,0.0014503,0.00022865,0.0,0 STARLINK-4710,1 53799U 22111AC  23017.71586933  .00022865  00000-0  14503-2 0  9993,2 53799  53.2180  12.9922 0001657  80.3312 279.7867 15.08833081 20662,6917.901999999999,95.438,540.913,538.62,0.0
53799.0,STARLINK-4710,PAYLOAD,2023-01-18 09:04:41,15.08883803,0.0001706,53.2181,10.0185,82.2101,277.9085,0.0021896,0.00034774,0.0,0 STARLINK-4710,1 53799U 22111AC  23018.37825977  .00034774  00000-0  21896-2 0  9995,2 53799  53.2181  10.0185 0001706  82.2101 277.9085 15.08883803 19954,6917.746999999999,95.435,540.7919999999999,538.431,0.0
53799.0,STARLINK-4710,PAYLOAD,2023-01-19 02:33:55,15.08874442,9.53e-05,53.2186,6.7473,101.8583,258.2516,0.0020792,0.00032989,0.0,0 STARLINK-4710,1 53799U 22111AC  23019.10689425  .00032989  00000-0  20792-2 0  9993,2 53799  53.2186   6.7473 0000953 101.8583 258.2516 15.08874442 20060,6917.775,95.435,540.299,538.981,0.0
53799.0,STARLINK-4710,PAYLOAD,2023-01-19 05:44:41,15.08817696,0.0001271,53.2184,6.1522,103.6004,256.513,-0.00023662,-4.049e-05,0.0,0 STARLINK-4710,1 53799U 22111AC  23019.23937415 -.00004049  00000-0 -23662-3 0  9990,2 53799  53.2184   6.1522 0001271 103.6004 256.5130 15.08817696 20082,6917.9490000000005,95.439,540.693,538.934,0.0
53799.0,STARLINK-4710,PAYLOAD,2023-01-19 23:13:57,15.08841263,0.0001320999999999,53.2183,2.8805,100.6331,259.4809,0.0020158,0.0003194,0.0,0 STARLINK-4710,1 53799U 22111AC  23019.96802823  .00031940  00000-0  20158-2 0  9998,2 53799  53.2183   2.8805 0001321 100.6331 259.4809 15.08841263 20198,6917.877,95.437,540.655,538.828,0.0
53799.0,STARLINK-4710,PAYLOAD,2023-01-20 23:04:44,15.08850584,0.0002079,53.2179,358.4259,101.3739,258.7487,0.0013915,0.00021934,0.0,0 STARLINK-4710,1 53799U 22111AC  23020.96162679  .00021934  00000-0  13915-2 0  9993,2 53799  53.2179 358.4259 0002079 101.3739 258.7487 15.08850584 20344,6917.848000000001,95.437,541.151,538.275,0.0
53799.0,STARLINK-4710,PAYLOAD,2023-01-21 21:20:08,15.08863666,0.000193,53.2186,354.259,84.7457,275.3755,0.0016237,0.00025665,0.0,0 STARLINK-4710,1 53799U 22111AC  23021.88898514  .00025665  00000-0  16237-2 0  9994,2 53799  53.2186 354.2590 0001930  84.7457 275.3755 15.08863666 20483,6917.808000000001,95.436,541.008,538.3380000000001,0.0
53799.0,STARLINK-4710,PAYLOAD,2023-01-22 03:41:40,15.08851274,0.000138,53.2193,353.0699,89.3116,270.8034,0.00058311,9.007e-05,0.0,0 STARLINK-4710,1 53799U 22111AC  23022.15394285  .00009007  00000-0  58311-3 0  9993,2 53799  53.2193 353.0699 0001380  89.3116 270.8034 15.08851274 20527,6917.846,95.437,540.6659999999999,538.756,0.0
53799.0,STARLINK-4710,PAYLOAD,2023-01-23 06:43:14,15.08836109,0.0001057,53.2181,348.0145,62.6345,297.4755,0.0015919,0.00025135,0.0,0 STARLINK-4710,1 53799U 22111AC  23023.28002695  .00025135  00000-0  15919-2 0  9995,2 53799  53.2181 348.0145 0001057  62.6345 297.4755 15.08836109 20696,6917.892,95.438,540.489,539.026,0.0
53799.0,STARLINK-4710,PAYLOAD,2023-01-23 14:40:10,15.08837315,0.0001109,53.2187,346.524,83.243,276.8689,0.00062837,9.726e-05,0.0,0 STARLINK-4710,1 53799U 22111AC  23023.61122936  .00009726  00000-0  62837-3 0  9993,2 53799  53.2187 346.5240 0001109  83.2430 276.8689 15.08837315 20746,6917.889,95.438,540.521,538.986,0.0
53799.0,STARLINK-4710,PAYLOAD,2023-01-25 03:14:02,15.08853686,0.0001365,53.2186,339.6872,106.8083,253.3059,0.00079377,0.00012372,0.0,0 STARLINK-4710,1 53799U 22111AC  23025.13474949  .00012372  00000-0  79377-3 0  9994,2 53799  53.2186 339.6872 0001365 106.8083 253.3059 15.08853686 20974,6917.839,95.437,540.648,538.759,0.0
53799.0,STARLINK-4710,PAYLOAD,2023-01-25 06:24:48,15.08845926,0.0001372,53.2178,339.0927,104.9097,255.2047,0.00095767,0.00014989,0.0,0 STARLINK-4710,1 53799U 22111AC  23025.26723044  .00014989  00000-0  95767-3 0  9998,2 53799  53.2178 339.0927 0001372 104.9097 255.2047 15.08845926 21801,6917.861999999999,95.437,540.6759999999999,538.778,0.0
53799.0,STARLINK-4710,PAYLOAD,2023-01-26 03:04:49,15.08857194,0.0001115,53.2185,335.2276,85.3421,274.7699,0.0016715999999999,0.00026428,0.0,0 STARLINK-4710,1 53799U 22111AC  23026.12835246  .00026428  00000-0  16716-2 0  9999,2 53799  53.2185 335.2276 0001115  85.3421 274.7699 15.08857194 21126,6917.828,95.436,540.464,538.9209999999999,0.0
53799.0,STARLINK-4710,PAYLOAD,2023-01-26 23:44:50,15.08848752,0.000148,53.2176,331.3607,107.058,253.0575,0.00071602,0.00011129,0.0,0 STARLINK-4710,1 53799U 22111AC  23026.98947061  .00011129  00000-0  71602-3 0  9990,2 53799  53.2176 331.3607 0001480 107.0580 253.0575 15.08848752 21251,6917.854,95.437,540.742,538.695,0.0
53799.0,STARLINK-4710,PAYLOAD,2023-01-27 04:30:59,15.08850192,0.0001435,53.2186,330.4691,97.23,262.8856,0.00048251,7.402e-05,0.0,0 STARLINK-4710,1 53799U 22111AC  23027.18818923  .00007402  00000-0  48251-3 0  9990,2 53799  53.2186 330.4691 0001435  97.2300 262.8856 15.08850192 22099,6917.849,95.437,540.707,538.722,0.0
53799.0,STARLINK-4710,PAYLOAD,2023-01-28 04:21:46,15.08845828,0.0001136,53.2177,326.0085,82.8866,277.2256,0.00043615,6.661e-05,0.0,0 STARLINK-4710,1 53799U 22111AC  23028.18179092  .00006661  00000-0  43615-3 0  9993,2 53799  53.2177 326.0085 0001136  82.8866 277.2256 15.08845828 21433,6917.863,95.437,540.513,538.942,0.0
53799.0,STARLINK-4710,PAYLOAD,2023-01-29 05:47:56,15.08845793,0.0001282,53.2182,321.2521,87.1929,272.921,0.00018099,2.594e-05,0.0,0 STARLINK-4710,1 53799U 22111AC  23029.24162846  .00002594  00000-0  18099-3 0  9999,2 53799  53.2182 321.2521 0001282  87.1929 272.9210 15.08845793 21591,6917.863,95.437,540.615,538.841,0.0
53799.0,STARLINK-4710,PAYLOAD,2023-01-30 04:03:20,15.08848532,0.000123,53.2174,317.0896,73.8469,286.2659,0.00017534,2.504e-05,0.0,0 STARLINK-4710,1 53799U 22111AC  23030.16898928  .00002504  00000-0  17534-3 0  9993,2 53799  53.2174 317.0896 0001230  73.8469 286.2659 15.08848532 21739,6917.854,95.437,540.57,538.868,0.0
53799.0,STARLINK-4710,PAYLOAD,2023-01-30 23:07:58,15.08842597,0.0001486,53.218,313.521,71.7011,288.4143,3.971e-05,3.44e-06,0.0,0 STARLINK-4710,1 53799U 22111AC  23030.96387111  .00000344  00000-0  39710-4 0  9999,2 53799  53.2180 313.5210 0001486  71.7011 288.4143 15.08842597 21850,6917.872,95.437,540.765,538.709,0.0
53799.0,STARLINK-4710,PAYLOAD,2023-01-31 03:54:07,15.08849252,0.0001326,53.2183,312.6291,75.3364,284.7776,0.00012715,1.737e-05,0.0,0 STARLINK-4710,1 53799U 22111AC  23031.16258730  .00001737  00000-0  12715-3 0  9998,2 53799  53.2183 312.6291 0001326  75.3364 284.7776 15.08849252 22695,6917.852,95.437,540.634,538.8,0.0
53799.0,STARLINK-4710,PAYLOAD,2023-01-31 21:23:22,15.08844928,0.000118,53.2169,309.3578,89.503,270.6097,3.1827e-05,2.19e-06,0.0,0 STARLINK-4710,1 53799U 22111AC  23031.89122837  .00000219  00000-0  31827-4 0  9996,2 53799  53.2169 309.3578 0001180  89.5030 270.6097 15.08844928 22803,6917.865,95.437,540.547,538.914,0.0
53799.0,STARLINK-4710,PAYLOAD,2023-02-01 03:44:54,15.08852455,0.0001276,53.2168,308.1673,87.77,272.3438,0.00016258,2.301e-05,0.0,0 STARLINK-4710,1 53799U 22111AC  23032.15618431  .00002301  00000-0  16258-3 0  9990,2 53799  53.2168 308.1673 0001276  87.7700 272.3438 15.08852455 22032,6917.842,95.437,540.59,538.825,0.0
53799.0,STARLINK-4710,PAYLOAD,2023-02-01 13:17:13,15.0884807,0.0001129,53.217,306.3853,79.7191,280.3928,6.9222e-05,8.14e-06,0.0,0 STARLINK-4710,1 53799U 22111AC  23032.55362597  .00000814  00000-0  69222-4 0  9990,2 53799  53.2170 306.3853 0001129  79.7191 280.3928 15.08848070 22904,6917.856,95.437,540.502,538.94,0.0
